AEROCUBE 12A            
1 43556U 18046C   19230.90325503  .00001110  00000-0  51621-4 0  9996
2 43556  51.6428 123.0037 0007898 291.0910  68.9225 15.28835171 60921
AEROCUBE 12B            
1 43557U 18046D   19230.92214136  .00000744  00000-0  38915-4 0  9991
2 43557  51.6424 123.1255 0007845 290.8534  69.1605 15.28686786 60877
UITMSAT-1               
1 43589U 98067PD  19230.62906826  .00010324  00000-0  11735-3 0  9993
2 43589  51.6364  35.2403 0005151  26.0915 334.0338 15.62957105 58275
MAYA-1                  
1 43590U 98067PE  19231.71037733  .00010328  00000-0  11721-3 0  9997
2 43590  51.6372  29.7173 0005313  30.7904 329.3401 15.62996738 58372
BHUTAN-1                
1 43591U 98067PF  19231.69875865  .00010037  00000-0  11382-3 0  9991
2 43591  51.6378  29.6661 0005439  30.5557 329.5753 15.63054609 58376
SIRIUSSAT-1             
1 43595U 98067PG  19231.71830138  .00009445  00000-0  11119-3 0  9991
2 43595  51.6368  31.2698 0003126 349.7832  10.3098 15.62170297 57535
SIRIUSSAT-2             
1 43596U 98067PH  19231.81899872  .00009022  00000-0  10715-3 0  9995
2 43596  51.6380  31.2338 0003718 349.8161  10.2757 15.62005380 57546
TANUSHA-3               
1 43597U 98067PJ  19231.81405380  .00012013  00000-0  13091-3 0  9997
2 43597  51.6362  28.8791 0003317   4.6033 355.4991 15.63864526 57574
SURFSAT                 
1 43614U 18070B   19230.90394407  .00001492  00000-0  40296-4 0  9996
2 43614  93.0259  28.9180 0018512  72.8463 287.4815 15.37720655 51814
CP7 (DAVE)              
1 43615U 18070C   19230.91301070  .00001335  00000-0  36176-4 0  9990
2 43615  93.0261  28.9218 0018631  72.4043 287.9244 15.37629551 51816
ELFIN-B                 
1 43616U 18070D   19231.80551249  .00001824  00000-0  48210-4 0  9990
2 43616  93.0226  29.1996 0019359  72.2847 288.0518 15.38336011 51961
ELFIN-A                 
1 43617U 18070E   19230.95190985  .00002249  00000-0  59353-4 0  9994
2 43617  93.0283  29.1096 0018609  72.7537 287.5751 15.38382182 51833
CUBEBEL-1 (BSUSAT-1)    
1 43666U 18083E   19231.86879807  .00000644  00000-0  35338-4 0  9994
2 43666  97.5175 255.9173 0014296 338.7189 145.2918 15.17667343 44713
DEBRISSAT-2             
1 43680U 98067PR  19230.80219233  .00017363  00000-0  17857-3 0  9995
2 43680  51.6370  33.4155 0003064  16.4458 343.6636 15.64979523 66157
CICERO 10               
1 43690U 18088A   19230.93037961  .00000435  00000-0  18430-4 0  9992
2 43690  85.0364 278.1937 0014554 352.5508   7.5514 15.19728749 42656
IRVINE01                
1 43693U 18088D   19231.83366902  .00001223  00000-0  52345-4 0  9994
2 43693  85.0338 277.0761 0016958 331.5061  28.5252 15.21554746 42811
PROXIMA I               
1 43694U 18088E   19230.93879869  .00000488  00000-0  19834-4 0  9994
2 43694  85.0307 277.4795 0017946 325.2409  34.7659 15.21451651 42690
PROXIMA II              
1 43696U 18088G   19230.93774147  .00000483  00000-0  19598-4 0  9991
2 43696  85.0308 277.4814 0017978 325.1871  34.8193 15.21456311 42683
FACSAT-1                
1 43721U 18096C   19231.81886066  .00000907  00000-0  37524-4 0  9991
2 43721  97.4558 301.5751 0019581 109.5445 250.7910 15.26409520 40216
CENTAURI-2              
1 43722U 18096D   19230.74141554  .00001108  00000-0  44902-4 0  9991
2 43722  97.4562 300.5676 0019723 113.5583 246.7729 15.26648570 40047
INNOSAT-2               
1 43738U 18096V   19231.82948641  .00001602  00000-0  59356-4 0  9998
2 43738  97.4565 302.4837 0025933 120.6334 239.7467 15.28846633 40278
SIRION PATHFINDER-2     
1 43759U 18099B   19231.82523863  .00000310  00000-0  33471-4 0  9994
2 43759  97.7415 303.0381 0015854 111.3849 248.9065 14.95150071 38706
CORVUS-BC 4             
1 43767U 18099K   19230.91714285 -.00000266  00000-0 -19239-4 0  9990
2 43767  97.7401 301.8739 0013171 116.8804 243.3764 14.94590864 38560
MOVE-II                 
1 43780U 18099Y   19230.70791074 -.00000063  00000-0 -45232-6 0  9992
2 43780  97.7411 301.8448 0014920 125.2231 235.0388 14.95098526 38529
SPACEBEE-7              
1 43816U 18099BL  19230.64479251 -.00000197  00000-0 -12559-4 0  9997
2 43816  97.7425 301.9736 0014904 111.7833 248.4976 14.95443317 38089
SPACEBEE-5              
1 43817U 18099BM  19231.75794405  .00000924  00000-0  88015-4 0  9998
2 43817  97.7448 303.1705 0015033 109.4530 250.8316 14.95715610 38259
SPACEBEE-6              
1 43818U 18099BN  19230.70346117  .00000096  00000-0  13892-4 0  9997
2 43818  97.7433 302.0628 0014938 111.6322 248.6492 14.95531914 38245
SHIELDS 1               
1 43850U 18104B   19230.43299222  .00000042  00000-0  00000-0 0  9998
2 43850  85.0290  16.3001 0017383 104.2451 256.0709 15.21118178 37257
STF-1                   
1 43852U 18104D   19231.64117293  .00000042  00000-0  00000+0 0  9990
2 43852  85.0323  15.7888 0016934 112.3018 248.0029 15.20682384 37421
ZACUBE-2                
1 43907U 18111AH  19231.84659701  .00000261  00000-0  13483-4 0  9993
2 43907  97.2843 135.3626 0023000 129.0935 231.2353 15.24231005 35918
LUME 1                  
1 43908U 18111AJ  19230.71706400  .00000527  00000-0  24198-4 0  9998
2 43908  97.2843 134.2938 0022830 132.9184 227.3975 15.24409132 35747
AOBA VELOX-IV           
1 43940U 19003J   19231.80473959  .00000984  00000-0  43312-4 0  9992
2 43940  97.2733 287.8681 0023888 208.7583 263.3933 15.23944301 32540
CATSAT-2                
1 44029U 98067PV  19230.78526722  .00007700  00000-0  11030-3 0  9995
2 44029  51.6399  45.3450 0004876  23.1046 337.0164 15.57238205 31091
DELPHINI                
1 44030U 98067PW  19231.73613265  .00007472  00000-0  10647-3 0  9991
2 44030  51.6387  40.4292 0004529  23.9447 336.1755 15.57432502 31214
UNITE                   
1 44031U 98067PX  19230.78587561  .00004548  00000-0  70416-4 0  9997
2 44031  51.6395  46.0874 0003299  20.2004 339.9118 15.56235389 31053
TECHEDSAT 8             
1 44032U 98067PY  19230.88236803  .00018573  00000-0  21607-3 0  9999
2 44032  51.6380  41.4780 0002983  17.2589 342.8505 15.61756889 31104
CATSAT-1                
1 44033U 98067PZ  19231.68345007  .00006951  00000-0  10012-3 0  9991
2 44033  51.6400  40.8442 0004790  27.2366 332.8876 15.57267442 31149
RAAVANA-1               
1 44329U 98067QE  19231.77615790  .00004486  00000-0  79186-4 0  9997
2 44329  51.6416  45.2078 0006802 316.6775  43.3679 15.52566217  9904
UGUISU                  
1 44330U 98067QF  19230.87652839  .00004195  00000-0  74669-4 0  9992
2 44330  51.6413  49.6992 0006732 311.6133  48.4279 15.52517789  9745
NEPALISAT-1             
1 44331U 98067QG  19230.87360857  .00004211  00000-0  74735-4 0  9992
2 44331  51.6414  49.6804 0006791 314.3722  45.6711 15.52591753  9752
SPOOQY-1                
1 44332U 98067QH  19230.87213307  .00004182  00000-0  74189-4 0  9990
2 44332  51.6412  49.6691 0005549 317.1847  42.8711 15.52627097  9710
SPACEBEE-9              
1 44370U 19037F   19230.44282044 -.00000348  00000-0  00000-0 0  9997
2 44370  45.0138  10.0919 0015072 211.2650 148.8214 15.39416927  7690
SPACEBEE-8              
1 44371U 19037G   19230.56607418 -.00000351  00000-0  00000-0 0  9991
2 44371  45.0089   9.3197 0017174 204.7013 155.3103 15.39790018  7708
MOVE-IIB                
1 44398U 19038N   19231.11592957  .00000804  00000-0  50700-4 0  9992
2 44398  97.4926 192.1901 0027402  91.9376 268.4993 15.11620541  6744
SONATE                  
1 44400U 19038Q   19231.11465411  .00000350  00000-0  24202-4 0  9994
2 44400  97.4938 192.1908 0027157  90.4319 270.0024 15.11644986  6749
LUCKY-7                 
1 44406U 19038W   19230.84446782  .00000400  00000-0  27007-4 0  9991
2 44406  97.4936 191.9381 0026628  91.2443 269.1838 15.11831228  6697
BEESAT 9                
1 44412U 19038AC  19230.38276688  .00000511  00000-0  33518-4 0  9990
2 44412  97.4934 191.4808 0024766  98.0659 262.3382 15.11781445  6320
JAISAT-1                
1 44419U 19038F   19230.89767401  .00000469  00000-0  30697-4 0  9998
2 44419  97.4936 192.0202 0023589  96.3790 264.0128 15.12277275  6715
SWIATOWID               
1 44426U 98067QL  19230.89895211  .00006782  00000-0  11755-3 0  9993
2 44426  51.6422  49.8526 0003907 267.3085  92.7458 15.52147179  7246
KRAKSAT                 
1 44427U 98067QM  19231.89404090  .00003312  00000-0  61857-4 0  9991
2 44427  51.6445  44.9405 0003367 265.9869 239.2512 15.51896509  7435
VCC A                   
1 44428U 98067QN  19230.76727173  .00004573  00000-0  81795-4 0  9990
2 44428  51.6427  50.4734 0002805 284.9309  75.1370 15.52134076  7264
ENTRYSAT                
1 44429U 98067QP  19231.73170888  .00005117  00000-0  90337-4 0  9991
2 44429  51.6425  45.6650 0002698 279.7127  80.3558 15.52220802  7412
VCC C                   
1 44430U 98067QQ  19230.76730174  .00006530  00000-0  11343-3 0  9994
2 44430  51.6426  50.4738 0002800 287.2702  72.7981 15.52158397  6080
VCC B                   
1 44431U 98067QR  19231.73393249  .00004530  00000-0  81154-4 0  9997
2 44431  51.6428  45.6796 0002979 289.3966  70.6702 15.52117260  7358
